NORAD_CAT_ID,OBJECT_NAME,OBJECT_TYPE,EPOCH,MEAN_MOTION,ECCENTRICITY,INCLINATION,RA_OF_ASC_NODE,ARG_OF_PERICENTER,MEAN_ANOMALY,BSTAR,MEAN_MOTION_DOT,MEAN_MOTION_DDOT,TLE_LINE0,TLE_LINE1,TLE_LINE2,SEMIMAJOR_AXIS,PERIOD,APOGEE,PERIGEE,DECAYED
53895.0,STARLINK-5032,PAYLOAD,2024-06-16 14:33:14,15.08835928,0.0001419,53.2184,277.0851,105.636,254.4789,0.00012634,1.723e-05,0.0,0 STARLINK-5032,1 53895U 22119K   24168.60641424  .00001723  00000-0  12634-3 0  9995,2 53895  53.2184 277.0851 0001419 105.6360 254.4789 15.08835928 96419,6917.893,95.438,540.739,538.776,0.0
53895.0,STARLINK-5032,PAYLOAD,2024-06-17 11:13:15,15.08834635,0.0001326,53.2182,273.2194,102.4422,257.6719,3.2626e-06,-2.36e-06,0.0,0 STARLINK-5032,1 53895U 22119K   24169.46754052 -.00000236  00000-0  32626-5 0  9996,2 53895  53.2182 273.2194 0001326 102.4422 257.6719 15.08834635 96542,6917.897,95.438,540.679,538.844,0.0
53895.0,STARLINK-5032,PAYLOAD,2024-06-18 12:39:25,15.08841292,0.0001589,53.2177,268.4594,105.1041,255.0127,9.9088e-05,1.289e-05,0.0,0 STARLINK-5032,1 53895U 22119K   24170.52737435  .00001289  00000-0  99088-4 0  9993,2 53895  53.2177 268.4594 0001589 105.1041 255.0127 15.08841292 96287,6917.876,95.437,540.841,538.642,0.0
53895.0,STARLINK-5032,PAYLOAD,2024-06-18 14:14:48,15.08842751,0.0001388,53.2168,268.1613,95.3131,264.8019,0.00010301,1.352e-05,0.0,0 STARLINK-5032,1 53895U 22119K   24170.59361357  .00001352  00000-0  10301-3 0  9997,2 53895  53.2168 268.1613 0001388  95.3131 264.8019 15.08842751 96710,6917.872,95.437,540.697,538.777,0.0
53895.0,STARLINK-5032,PAYLOAD,2024-06-19 12:30:12,15.08840212,0.0001288,53.2165,263.9971,96.5641,263.5498,0.0001063,1.404e-05,0.0,0 STARLINK-5032,1 53895U 22119K   24171.52097741  .00001404  00000-0  10630-3 0  9997,2 53895  53.2165 263.9971 0001288  96.5641 263.5498 15.08840212 96857,6917.88,95.438,540.636,538.854,0.0
53895.0,STARLINK-5032,PAYLOAD,2024-06-20 12:20:59,15.08843143,0.0001357,53.2165,259.5376,92.0952,268.0196,6.2277e-05,7.03e-06,0.0,0 STARLINK-5032,1 53895U 22119K   24172.51457737  .00000703  00000-0  62277-4 0  9998,2 53895  53.2165 259.5376 0001357  92.0952 268.0196 15.08843143 97009,6917.871,95.437,540.675,538.797,0.0
53895.0,STARLINK-5032,PAYLOAD,2024-06-21 12:11:46,15.08841776,0.0001355,53.2164,255.0765,92.9187,267.196,5.4005e-05,5.72e-06,0.0,0 STARLINK-5032,1 53895U 22119K   24173.50817906  .00000572  00000-0  54005-4 0  9990,2 53895  53.2164 255.0765 0001355  92.9187 267.1960 15.08841776 96736,6917.875,95.437,540.677,538.803,0.0
53895.0,STARLINK-5032,PAYLOAD,2024-06-22 10:27:11,15.08835327,0.000144,53.2169,250.9141,91.0159,269.0999,8.6864e-06,-1.5e-06,0.0,0 STARLINK-5032,1 53895U 22119K   24174.43554586 -.00000150  00000-0  86864-5 0  9997,2 53895  53.2169 250.9141 0001440  91.0159 269.0999 15.08835327 96870,6917.895,95.438,540.756,538.763,0.0
53895.0,STARLINK-5032,PAYLOAD,2024-06-23 11:53:21,15.08840665,0.0001444,53.2171,246.1564,93.9377,266.178,7.1054e-05,8.43e-06,0.0,0 STARLINK-5032,1 53895U 22119K   24175.49538209  .00000843  00000-0  71054-4 0  9990,2 53895  53.2171 246.1564 0001444  93.9377 266.1780 15.08840665 97032,6917.878,95.438,540.742,538.744,0.0
53895.0,STARLINK-5032,PAYLOAD,2024-06-24 11:44:07,15.08842376,0.000138,53.2167,241.6959,82.4538,277.6611,0.00011644,1.566e-05,0.0,0 STARLINK-5032,1 53895U 22119K   24176.48898012  .00001566  00000-0  11644-3 0  9992,2 53895  53.2167 241.6959 0001380  82.4538 277.6611 15.08842376 97600,6917.873,95.437,540.693,538.783,0.0
53895.0,STARLINK-5032,PAYLOAD,2024-06-25 11:34:55,15.08839652,0.0001386,53.2165,237.235,89.168,270.947,1.2795e-05,-8.4e-07,0.0,0 STARLINK-5032,1 53895U 22119K   24177.48258536 -.00000084  00000-0  12795-4 0  9998,2 53895  53.2165 237.2350 0001386  89.1680 270.9470 15.08839652 97334,6917.881,95.438,540.705,538.788,0.0
53895.0,STARLINK-5032,PAYLOAD,2024-06-26 11:25:42,15.08819805,0.0001799,53.2175,232.773,63.5352,296.5824,0.00044346,6.773e-05,0.0,0 STARLINK-5032,1 53895U 22119K   24178.47618664  .00006773  00000-0  44346-3 0  9996,2 53895  53.2175 232.7730 0001799  63.5352 296.5824 15.08819805 97488,6917.942,95.439,541.052,538.563,0.0
53895.0,STARLINK-5032,PAYLOAD,2024-06-27 09:41:06,15.0883202,0.0001661,53.2168,228.6099,76.5502,283.5675,0.00012737,1.739e-05,0.0,0 STARLINK-5032,1 53895U 22119K   24179.40354673  .00001739  00000-0  12737-3 0  9993,2 53895  53.2168 228.6099 0001661  76.5502 283.5675 15.08832020 98048,6917.905,95.438,540.919,538.621,0.0
53895.0,STARLINK-5032,PAYLOAD,2024-06-28 09:31:53,15.08844839,0.0001311,53.2153,224.1504,93.7251,266.3891,-2.2604e-05,-6.48e-06,0.0,0 STARLINK-5032,1 53895U 22119K   24180.39714334 -.00000648  00000-0 -22604-4 0  9992,2 53895  53.2153 224.1504 0001311  93.7251 266.3891 15.08844839 97777,6917.866,95.437,540.638,538.824,0.0
53895.0,STARLINK-5032,PAYLOAD,2024-06-29 12:33:27,15.08830576,0.0001158,53.2153,219.0978,78.8744,281.2378,-4.3964e-05,-9.87e-06,0.0,0 STARLINK-5032,1 53895U 22119K   24181.52323604 -.00000987  00000-0 -43964-4 0  9992,2 53895  53.2153 219.0978 0001158  78.8744 281.2378 15.08830576 97943,6917.909,95.438,540.575,538.973,0.0
53895.0,STARLINK-5032,PAYLOAD,2024-06-30 10:48:51,15.08839675,0.0001212,53.2155,214.9326,93.2983,266.8148,6.6883e-06,-1.81e-06,0.0,0 STARLINK-5032,1 53895U 22119K   24182.45059299 -.00000181  00000-0  66883-5 0  9992,2 53895  53.2155 214.9326 0001212  93.2983 266.8148 15.08839675 98082,6917.881,95.438,540.585,538.908,0.0
53895.0,STARLINK-5032,PAYLOAD,2024-07-01 09:04:14,15.08837765,0.0001271,53.2155,210.7693,100.8447,259.2688,0.00020206,2.929e-05,0.0,0 STARLINK-5032,1 53895U 22119K   24183.37795059  .00002929  00000-0  20206-3 0  9993,2 53895  53.2155 210.7693 0001271 100.8447 259.2688 15.08837765 98643,6917.887,95.438,540.631,538.873,0.0
53895.0,STARLINK-5032,PAYLOAD,2024-07-01 18:36:33,15.08837482,0.0001293,53.2156,208.9856,100.2694,259.8444,0.00015406,2.165e-05,0.0,0 STARLINK-5032,1 53895U 22119K   24183.77539316  .00002165  00000-0  15406-3 0  9997,2 53895  53.2156 208.9856 0001293 100.2694 259.8444 15.08837482 98288,6917.888,95.438,540.648,538.859,0.0
53895.0,STARLINK-5032,PAYLOAD,2024-07-02 10:30:25,15.08837674,0.0001311,53.2161,206.0106,92.1998,267.9144,4.032e-05,3.54e-06,0.0,0 STARLINK-5032,1 53895U 22119K   24184.43779826  .00000354  00000-0  40320-4 0  9995,2 53895  53.2161 206.0106 0001311  92.1998 267.9144 15.08837674 98806,6917.887,95.438,540.659,538.846,0.0
53895.0,STARLINK-5032,PAYLOAD,2024-07-02 18:27:21,15.08840027,0.0001295,53.2159,204.5238,89.4367,270.6773,2.9002e-05,1.74e-06,0.0,0 STARLINK-5032,1 53895U 22119K   24184.76899686  .00000174  00000-0  29002-4 0  9992,2 53895  53.2159 204.5238 0001295  89.4367 270.6773 15.08840027 98852,6917.88,95.438,540.641,538.849,0.0
53895.0,STARLINK-5032,PAYLOAD,2024-07-03 00:48:53,15.08842579,0.0001286,53.2158,203.3343,88.7406,271.3734,-6.3219e-06,-3.89e-06,0.0,0 STARLINK-5032,1 53895U 22119K   24185.03395631 -.00000389  00000-0 -63219-5 0  9993,2 53895  53.2158 203.3343 0001286  88.7406 271.3734 15.08842579 98478,6917.873,95.437,540.627,538.848,0.0
53895.0,STARLINK-5032,PAYLOAD,2024-07-03 18:18:08,15.08843638,0.0001288,53.2158,200.0631,87.4169,272.697,1.1665e-05,-1.02e-06,0.0,0 STARLINK-5032,1 53895U 22119K   24185.76259314 -.00000102  00000-0  11665-4 0  9999,2 53895  53.2158 200.0631 0001288  87.4169 272.6970 15.08843638 99009,6917.869,95.437,540.625,538.843,0.0
53895.0,STARLINK-5032,PAYLOAD,2024-07-04 08:36:36,15.0884354,0.0001242,53.2155,197.3867,87.0834,273.0301,7.8855e-05,9.67e-06,0.0,0 STARLINK-5032,1 53895U 22119K   24186.35875028  .00000967  00000-0  78855-4 0  9993,2 53895  53.2155 197.3867 0001242  87.0834 273.0301 15.08843540 98677,6917.87,95.437,540.594,538.875,0.0
53895.0,STARLINK-5032,PAYLOAD,2024-07-04 18:08:54,15.08842511,0.0001244,53.2156,195.6027,86.692,273.4215,6.0152e-05,6.7e-06,0.0,0 STARLINK-5032,1 53895U 22119K   24186.75619056  .00000670  00000-0  60152-4 0  9996,2 53895  53.2156 195.6027 0001244  86.6920 273.4215 15.08842511 99159,6917.873,95.437,540.598,538.877,0.0
53895.0,STARLINK-5032,PAYLOAD,2024-07-05 10:02:46,15.08843665,0.0001254,53.2156,192.6291,87.8197,272.2938,5.9317e-05,6.56e-06,0.0,0 STARLINK-5032,1 53895U 22119K   24187.41858899  .00000656  00000-0  59317-4 0  9995,2 53895  53.2156 192.6291 0001254  87.8197 272.2938 15.08843665 98833,6917.869,95.437,540.602,538.867,0.0
53895.0,STARLINK-5032,PAYLOAD,2024-07-05 17:59:41,15.08840987,0.0001248,53.2153,191.1422,87.5569,272.5566,2.2631e-05,7.2e-07,0.0,0 STARLINK-5032,1 53895U 22119K   24187.74979114  .00000072  00000-0  22631-4 0  9996,2 53895  53.2153 191.1422 0001248  87.5569 272.5566 15.08840987 99300,6917.877,95.437,540.606,538.879,0.0
53895.0,STARLINK-5032,PAYLOAD,2024-07-06 03:32:01,15.08837832,0.0001269,53.2155,189.358,88.3133,271.8004,-2.013e-05,-6.08e-06,0.0,0 STARLINK-5032,1 53895U 22119K   24188.14723444 -.00000608  00000-0 -20130-4 0  9993,2 53895  53.2155 189.3580 0001269  88.3133 271.8004 15.08837832 98948,6917.887,95.438,540.63,538.874,0.0
53895.0,STARLINK-5032,PAYLOAD,2024-07-06 09:53:33,15.0883991,0.0001321,53.2157,188.1678,94.1686,265.9458,-7.4494e-06,-4.06e-06,0.0,0 STARLINK-5032,1 53895U 22119K   24188.41219218 -.00000406  00000-0 -74494-5 0  9991,2 53895  53.2157 188.1678 0001321  94.1686 265.9458 15.08839910 99400,6917.881,95.438,540.66,538.832,0.0
53895.0,STARLINK-5032,PAYLOAD,2024-07-07 04:58:11,15.08835244,0.0001355,53.2158,184.599,95.8041,264.3105,-2.9229e-05,-7.53e-06,0.0,0 STARLINK-5032,1 53895U 22119K   24189.20707686 -.00000753  00000-0 -29229-4 0  9990,2 53895  53.2158 184.5990 0001355  95.8041 264.3105 15.08835244 99103,6917.895,95.438,540.697,538.823,0.0
53895.0,STARLINK-5032,PAYLOAD,2024-07-07 06:33:34,15.08834981,0.000133,53.2155,184.3023,93.2791,266.8353,-2.2549e-05,-6.47e-06,0.0,0 STARLINK-5032,1 53895U 22119K   24189.27331701 -.00000647  00000-0 -22549-4 0  9998,2 53895  53.2155 184.3023 0001330  93.2791 266.8353 15.08834981 99538,6917.896,95.438,540.681,538.841,0.0
